[{"OBJECT_NAME":"STARLINK-2500","OBJECT_ID":"2021-040BK","EPOCH":"2026-03-09T15:01:08.299200","MEAN_MOTION":15.30194354,"ECCENTRICITY":0.0001337,"INCLINATION":53.1601,"RA_OF_ASC_NODE":194.0306,"ARG_OF_PERICENTER":88.4337,"MEAN_ANOMALY":271.6817,"EPHEMERIS_TYPE":0,"CLASSIFICATION_TYPE":"U","NORAD_CAT_ID":48485,"ELEMENT_SET_NO":999,"REV_AT_EPOCH":26645,"BSTAR":3.5824e-5,"MEAN_MOTION_DOT":7.02e-6,"MEAN_MOTION_DDOT":0},{"OBJECT_NAME":"TIANMU-1 08","OBJECT_ID":"2023-101B","EPOCH":"2026-03-07T00:03:25.475616","MEAN_MOTION":15.29204229,"ECCENTRICITY":0.00063808,"INCLINATION":97.2717,"RA_OF_ASC_NODE":118.7901,"ARG_OF_PERICENTER":134.2174,"MEAN_ANOMALY":225.9592,"EPHEMERIS_TYPE":0,"CLASSIFICATION_TYPE":"U","NORAD_CAT_ID":57400,"ELEMENT_SET_NO":999,"REV_AT_EPOCH":14602,"BSTAR":1.4774513e-5,"MEAN_MOTION_DOT":3.46e-6,"MEAN_MOTION_DDOT":0}]
