STARLINK-2500           
1 48485U 21040BK  26068.62579050  .00000702  00000+0  35824-4 0  9996
2 48485  53.1601 194.0306 0001337  88.4337 271.6817 15.30194354266457
TIANMU-1 08             
1 57400U 23101B   26066.00237819  .00000346  00000+0  14775-4 0  9993
2 57400  97.2717 118.7901 0006380 134.2174 225.9592 15.29204229146020
